CHINASAT 16 (SJ-13)     
1 42662U 17018A   18332.55049317 -.00000356  00000-0  00000-0 0  9993
2 42662   0.0693  99.9268 0007452 142.6724 133.5349  1.00271911  6092
KOREASAT 7              
1 42691U 17023A   18332.49096826 -.00000365  00000-0  00000-0 0  9991
2 42691   0.0296  69.4605 0001677 158.9568 131.5897  1.00271007  5731
SGDC                    
1 42692U 17023B   18332.02209072 -.00000251  00000-0  00000-0 0  9994
2 42692   0.0194  35.6214 0002306 213.5757 110.8012  1.00270441  5772
GSAT-9                  
1 42695U 17024A   18332.54236670 -.00000290  00000-0  00000+0 0  9991
2 42695   0.0858 277.2355 0001420 334.6492 108.1213  1.00272750  5788
INMARSAT 5-F4           
1 42698U 17025A   18332.78164112  .00000070  00000-0  00000-0 0  9998
2 42698   0.0175 248.7712 0000945  67.5620  43.6799  1.00267783  5613
SES-15                  
1 42709U 17026A   18332.17256431  .00000058  00000-0  00000-0 0  9997
2 42709   0.0184 339.1532 0000931 282.4571  98.4017  1.00271296  6503
VIASAT-2                
1 42740U 17029A   18333.00573447 -.00000270  00000-0  00000+0 0  9993
2 42740   0.0213 319.3465 0000350 342.5865  58.0636  1.00269711  5546
EUTELSAT 172B           
1 42741U 17029B   18332.33541288 -.00000008  00000-0  00000+0 0  9996
2 42741   0.0199 310.1779 0004991 321.3344  88.4525  1.00270373  6056
GSAT-19                 
1 42747U 17031A   18332.67937523  .00000121  00000-0  00000+0 0  9998
2 42747   0.1022 101.0029 0001237 139.6866 119.3188  1.00272500  5481
ECHOSTAR 21             
1 42749U 17032A   18332.66190417  .00000055  00000-0  00000-0 0  9990
2 42749   6.5890 316.1109 0002284 294.0480  65.9266  1.00270092  5460
CHINASAT 9A (ZX 9A)     
1 42763U 17035A   18332.84910392 -.00000316  00000-0  00000-0 0  9992
2 42763   0.0838 108.6208 0000930  12.0764 354.0361  1.00266409  6006
BULGARIASAT-1           
1 42801U 17038A   18332.80672007  .00000007  00000-0  00000+0 0  9997
2 42801   0.0183 303.3679 0002615 301.9044 114.7210  1.00270209  5265
HELLAS-SAT 3            
1 42814U 17040A   18332.70402547  .00000148  00000-0  00000-0 0  9990
2 42814   0.0726  59.0098 0002280 236.7573  64.2300  1.00271447  5255
GSAT-17                 
1 42815U 17040B   18332.55292230 -.00000261  00000-0  00000-0 0  9997
2 42815   0.0160 278.7213 0006395 342.7602  98.4671  1.00270054  5173
INTELSAT 35E (IS-35E)   
1 42818U 17041A   18332.90758481 -.00000242  00000-0  00000-0 0  9994
2 42818   0.0219 256.8514 0001466 337.0075 126.1476  1.00270751  5229
COSMOS 2520             
1 42907U 17046A   18331.66303753  .00000136  00000-0  00000+0 0  9998
2 42907   0.0468 112.2824 0002782 254.8093 343.1530  1.00272631  4726
TDRS 13                 
1 42915U 17047A   18332.86661605 -.00000297  00000-0  00000+0 0  9993
2 42915   6.4146 330.9423 0027197   5.1699 354.8303  1.00272828  4734
QZS-3                   
1 42917U 17048A   18333.45736341 -.00000353  00000-0  00000+0 0  9995
2 42917   0.0691 134.9941 0002139 125.1309  99.8693  1.00269777  4735
AMAZONAS 5              
1 42934U 17053A   18332.98090732 -.00000287  00000-0  00000+0 0  9990
2 42934   0.0272 321.7229 0003901 313.4590  84.7936  1.00269135  4489
ASIASAT 9               
1 42942U 17057A   18333.40137553 -.00000365  00000-0  00000+0 0  9991
2 42942   0.0252 317.3200 0002707 296.4673  81.0702  1.00271653  4299
INTELSAT 37E (IS-37E)   
1 42950U 17059A   18332.86183689 -.00000145  00000-0  00000+0 0  9998
2 42950   0.0190 301.0113 0003047 310.0437 108.9322  1.00271320  4402
BSAT-4A                 
1 42951U 17059B   18332.50776772 -.00000354  00000-0  00000+0 0  9993
2 42951   0.0511  18.1716 0001467 330.8704  10.9762  1.00270767  4309
SES-11 (ECHOSTAR 105)   
1 42967U 17063A   18333.10274399 -.00000094  00000-0  00000+0 0  9991
2 42967   0.0072 351.2415 0002732 266.8044 101.9431  1.00271370  4176
KOREASAT 5A             
1 42984U 17067A   18332.49861825 -.00000362  00000-0  00000-0 0  9990
2 42984   0.0166 306.7254 0001648 285.2827 127.9771  1.00269300  3897
ALCOMSAT 1              
1 43039U 17078A   18332.88069494 -.00000190  00000-0  00000+0 0  9997
2 43039   0.0127 346.2469 0002396 224.8331 148.9260  1.00271350  3640
GOES-S                  
1 43226U 18022A   18332.19491175  .00000095  00000-0  00000+0 0  9997
2 43226   0.0551 105.3119 0002955 261.7201 352.9946  1.00270369  2783
HISPASAT 30W-6          
1 43228U 18023A   18332.89506266 -.00000220  00000-0  00000+0 0  9996
2 43228   0.0476  48.7148 0002924 212.9416  98.3305  1.00271077  2850
SUPERBIRD 8             
1 43271U 18033A   18332.36321743 -.00000095  00000-0  00000+0 0  9992
2 43271   0.0524 113.7707 0001618 126.1545 120.0806  1.00271273  2413
HYLAS 4                 
1 43272U 18033B   18332.90484907 -.00000237  00000-0  00000-0 0  9994
2 43272   0.0664 120.2084 0003590  85.1414 154.6526  1.00270520  2449
IRNSS-1I                
1 43286U 18035A   18332.98949736  .00000121  00000-0  00000+0 0  9995
2 43286  28.9068 119.0846 0021075 177.5707 182.3871  1.00271918  2434
BANGABANDHUSAT-1        
1 43463U 18044A   18332.48211525 -.00000366  00000-0  00000+0 0  9997
2 43463   0.0177  56.8350 0001837 192.9830 110.1837  1.00273214  2086
FENGYUN 2H              
1 43491U 18050A   18331.66975471 -.00000128  00000-0  00000-0 0  9998
2 43491   1.9699 284.4601 0003803 263.7970 198.3996  1.00273519  1857
TELSTAR 19V             
1 43562U 18059A   18332.98655731 -.00000284  00000-0  00000+0 0  9998
2 43562   0.0157 294.8624 0002636 295.2578 129.8566  1.00268915  1522
TELKOM 4 (MERAH PUTIH)  
1 43587U 18064A   18332.51289497 -.00000347  00000-0  00000+0 0  9992
2 43587   0.0177 328.7691 0001454 303.1151  88.0992  1.00269103  1221
